{
  "type": "FeatureCollection",
  "features": [
    {
      "type": "Feature",
      "properties": {
        "norad_id": 59600,
        "name": "GSAT0227 (GALILEO 30)",
        "group": "galileo",
        "lat": -27.150804101321388,
        "lon": 85.33338077057621,
        "alt_km": 23233.894864479396,
        "timestamp": "2025-12-09T11:33:55.062900+00:00",
        "meta_object_name": "GSAT0227 (GALILEO 30)",
        "meta_object_id": "2024-079C",
        "meta_epoch": "2025-12-08T08:44:01.424832",
        "meta_mean_motion": 1.70474656,
        "meta_eccentricity": 0.00032972,
        "meta_inclination": 54.9942,
        "meta_ra_of_asc_node": 106.4167,
        "meta_arg_of_pericenter": 114.0276,
        "meta_mean_anomaly": 245.9681,
        "meta_ephemeris_type": 0,
        "meta_classification_type": "U",
        "meta_norad_cat_id": 59600,
        "meta_element_set_no": 999,
        "meta_rev_at_epoch": 1011,
        "meta_bstar": 0,
        "meta_mean_motion_dot": 8e-08,
        "meta_mean_motion_ddot": 0,
        "tle_line1": "1 59600U 24079C   25342.36390538  .00000008  00000+0  00000+0 0  9991",
        "tle_line2": "2 59600  54.9942 106.4167 0003297 114.0276 245.9681  1.70474656 10110"
      },
      "geometry": {
        "type": "Point",
        "coordinates": [
          85.33338077057621,
          -27.150804101321388
        ]
      }
    },
    {
      "type": "Feature",
      "properties": {
        "norad_id": 61182,
        "name": "GSAT0232 (GALILEO 32)",
        "group": "galileo",
        "lat": 15.818178835375061,
        "lon": 35.19379668606045,
        "alt_km": 23216.73400019147,
        "timestamp": "2025-12-09T11:33:55.062911+00:00",
        "meta_object_name": "GSAT0232 (GALILEO 32)",
        "meta_object_id": "2024-167A",
        "meta_epoch": "2025-12-08T22:09:29.829888",
        "meta_mean_motion": 1.70473333,
        "meta_eccentricity": 0.000203,
        "meta_inclination": 55.2421,
        "meta_ra_of_asc_node": 226.5356,
        "meta_arg_of_pericenter": 212.642,
        "meta_mean_anomaly": 325.1995,
        "meta_ephemeris_type": 0,
        "meta_classification_type": "U",
        "meta_norad_cat_id": 61182,
        "meta_element_set_no": 999,
        "meta_rev_at_epoch": 763,
        "meta_bstar": 0,
        "meta_mean_motion_dot": 1.4e-07,
        "meta_mean_motion_ddot": 0,
        "tle_line1": "1 61182U 24167A   25342.92326192  .00000014  00000+0  00000+0 0  9991",
        "tle_line2": "2 61182  55.2421 226.5356 0002030 212.6420 325.1995  1.70473333  7631"
      },
      "geometry": {
        "type": "Point",
        "coordinates": [
          35.19379668606045,
          15.818178835375061
        ]
      }
    },
    {
      "type": "Feature",
      "properties": {
        "norad_id": 61183,
        "name": "GSAT0226 (GALILEO 31)",
        "group": "galileo",
        "lat": -55.11114626475115,
        "lon": 142.2756039666968,
        "alt_km": 23230.279551800762,
        "timestamp": "2025-12-09T11:33:55.062922+00:00",
        "meta_object_name": "GSAT0226 (GALILEO 31)",
        "meta_object_id": "2024-167B",
        "meta_epoch": "2025-12-09T04:40:23.432160",
        "meta_mean_motion": 1.70473456,
        "meta_eccentricity": 8.07e-05,
        "meta_inclination": 55.2405,
        "meta_ra_of_asc_node": 226.5334,
        "meta_arg_of_pericenter": 119.9636,
        "meta_mean_anomaly": 337.1316,
        "meta_ephemeris_type": 0,
        "meta_classification_type": "U",
        "meta_norad_cat_id": 61183,
        "meta_element_set_no": 999,
        "meta_rev_at_epoch": 761,
        "meta_bstar": 0,
        "meta_mean_motion_dot": 1.2e-07,
        "meta_mean_motion_ddot": 0,
        "tle_line1": "1 61183U 24167B   25343.19471565  .00000012  00000+0  00000+0 0  9995",
        "tle_line2": "2 61183  55.2405 226.5334 0000807 119.9636 337.1316  1.70473456  7612"
      },
      "geometry": {
        "type": "Point",
        "coordinates": [
          142.2756039666968,
          -55.11114626475115
        ]
      }
    }
  ]
}